{"fetched_at":"2026-03-29T16:36:15Z","count":15609,"tles":[{"name":"STARLINK-3128","line1":"1 49441U 21104AK  26087.81299119  .00000250  00000+0  33776-4 0  9999","line2":"2 49441  53.2163 123.2716 0001259  87.5769 272.5367 15.08836696241804","category":"Starlink"}]}