{
  "norad_id": 49441,
  "name": "STARLINK-3128",
  "history": [
    {
      "epoch": "2026-03-28T19:30:42.438816Z",
      "apogee_km": 540.6249346535196,
      "perigee_km": 538.8820413239746,
      "latitude_deg": -2.644284779290071e-05,
      "longitude_deg": 4.366695363624464,
      "height_km": 540.6123770512331,
      "semi_major_axis_km": 6917.890487988747,
      "eccentricity": 0.00012597,
      "inclination_deg": 53.2163,
      "raan_deg": 123.2716,
      "arg_perigee_deg": 87.5769,
      "mean_anomaly_deg": 272.5367,
      "mean_motion_rev_day": 15.08836696
    }
  ]
}